SAUDISAT 1C             
1 27607U 02058C   23158.34967854  .00001552  00000+0  22953-3 0  9998
2 27607  64.5547 295.0886 0069977 226.6585 132.8674 14.77283571100989
SAUDISAT 2              
1 28371U 04025F   23158.34487163  .00000431  00000+0  11080-3 0  9997
2 28371  98.4318 121.9075 0026732  93.5973 266.8281 14.54929942  4890
SAUDISAT 3              
1 31118U 07012B   23158.27454789  .00000390  00000+0  73628-4 0  9990
2 31118  98.0132 102.7043 0015877 141.9981 218.2348 14.69685501865267
PISAT                   
1 41784U 16059B   23158.08431131  .00001084  00000+0  21083-3 0  9994
2 41784  97.8698 191.8513 0032582 125.6815 234.7428 14.64679064357584
FLYING LAPTOP           
1 42831U 17042G   23158.10341072  .00001653  00000+0  16364-3 0  9996
2 42831  97.3917 356.4578 0011883 259.1752 100.8132 14.93058038320984
SALSAT                  
1 46495U 20068K   23157.83372162  .00003844  00000+0  25585-3 0  9990
2 46495  97.7699 105.7286 0016501 149.3105 210.9090 15.07640188147511
